0 COSMOS 2251 DEB
1 35887U 93036AUA 13282.23933814  .00002856  00000-0  14053-2 0  1528
2 35887 073.9872 249.6285 0129860 328.7404 030.6103 14.13765458220527
0 COSMOS 2251 DEB
1 35887U 93036AUA 13283.22997895  .00002952  00000-0  14527-2 0  1531
2 35887 073.9877 247.8696 0129492 326.7579 032.5607 14.13772402220662
0 COSMOS 2251 DEB
1 35887U 93036AUA 13287.19250063  .00003824  00000-0  18695-2 0  1540
2 35887 073.9812 240.8176 0132500 318.9763 040.2723 14.13807839221220
0 COSMOS 2251 DEB
1 35887U 93036AUA 13288.18308799  .00003620  00000-0  17799-2 0  1559
2 35887 073.9949 239.0861 0128023 316.6616 042.4669 14.13814354221367
0 COSMOS 2251 DEB
1 35887U 93036AUA 13289.17369335  .00004175  00000-0  20341-2 0  1566
2 35887 073.9693 237.2792 0134360 315.6226 043.4206 14.13826316221508
0 COSMOS 2251 DEB
1 35887U 93036AUA 13289.24445060  .00004169  00000-0  20415-2 0  1570
2 35887 073.9809 237.1788 0130300 315.2296 043.8516 14.13827222221510
0 COSMOS 2251 DEB
1 35887U 93036AUA 13291.22564000  .00003988  00000-0  19548-2 0  1581
2 35887 073.9927 233.6840 0129688 310.8811 048.1060 14.13842273221797
0 COSMOS 2251 DEB
1 35887U 93036AUA 13293.13605919  .00004331  00000-0  21124-2 0  1595
2 35887 073.9824 230.2719 0132753 307.8690 051.0849 14.13862241222065
0 COSMOS 2251 DEB
1 35887U 93036AUA 13295.11719665  .00004303  00000-0  20947-2 0  1602
2 35887 073.9789 226.7419 0134006 303.9743 054.8661 14.13878959222348
0 COSMOS 2251 DEB
1 35887U 93036AUA 13296.10776159  .00004189  00000-0  20353-2 0  1617
2 35887 073.9639 224.9456 0135707 302.4601 056.3321 14.13885642222481
